[{"OBJECT_NAME":"SPAWAR-CAL-R","OBJECT_ID":"2018-099U","EPOCH":"2026-03-08T15:37:40.202400","MEAN_MOTION":15.05212097,"ECCENTRICITY":0.00197014,"INCLINATION":97.4524,"RA_OF_ASC_NODE":111.5817,"ARG_OF_PERICENTER":348.9052,"MEAN_ANOMALY":11.1737,"EPHEMERIS_TYPE":0,"CLASSIFICATION_TYPE":"U","NORAD_CAT_ID":43776,"ELEMENT_SET_NO":999,"REV_AT_EPOCH":39687,"BSTAR":0.00025335573,"MEAN_MOTION_DOT":3.57e-5,"MEAN_MOTION_DDOT":0},{"OBJECT_NAME":"STARLINK-3190","OBJECT_ID":"2021-115AU","EPOCH":"2026-03-09T10:56:56.337504","MEAN_MOTION":15.08838372,"ECCENTRICITY":0.00013901,"INCLINATION":53.2153,"RA_OF_ASC_NODE":140.1784,"ARG_OF_PERICENTER":86.6291,"MEAN_ANOMALY":273.486,"EPHEMERIS_TYPE":0,"CLASSIFICATION_TYPE":"U","NORAD_CAT_ID":49766,"ELEMENT_SET_NO":999,"REV_AT_EPOCH":23564,"BSTAR":-5.2807671e-5,"MEAN_MOTION_DOT":-1.128e-5,"MEAN_MOTION_DDOT":0}]
